NORAD_CAT_ID,OBJECT_NAME,OBJECT_TYPE,EPOCH,MEAN_MOTION,ECCENTRICITY,INCLINATION,RA_OF_ASC_NODE,ARG_OF_PERICENTER,MEAN_ANOMALY,BSTAR,MEAN_MOTION_DOT,MEAN_MOTION_DDOT,TLE_LINE0,TLE_LINE1,TLE_LINE2,SEMIMAJOR_AXIS,PERIOD,APOGEE,PERIGEE,DECAYED
53180.0,STARLINK-4258,PAYLOAD,2023-09-23 01:58:14,15.0884998,0.0001393,53.2167,197.9286,90.012,270.1032,0.00033607,5.066e-05,0.0,0 STARLINK-4258,1 53180U 22083BA  23266.08211007  .00005066  00000-0  33607-3 0  9999,2 53180  53.2167 197.9286 0001393  90.0120 270.1032 15.08849980 66899,6917.85,95.437,540.679,538.751,0.0
53180.0,STARLINK-4258,PAYLOAD,2023-09-23 05:09:00,15.08854676,0.0001421,53.2169,197.3321,88.7268,271.3887,0.00039163,5.953e-05,0.0,0 STARLINK-4258,1 53180U 22083BA  23266.21458754  .00005953  00000-0  39163-3 0  9994,2 53180  53.2169 197.3321 0001421  88.7268 271.3887 15.08854676 66275,6917.836,95.437,540.684,538.718,0.0
53180.0,STARLINK-4258,PAYLOAD,2023-09-24 01:49:01,15.08846607,0.0001501,53.2163,193.4664,103.6185,256.4975,6.0028e-05,6.68e-06,0.0,0 STARLINK-4258,1 53180U 22083BA  23267.07570905  .00000668  00000-0  60028-4 0  9995,2 53180  53.2163 193.4664 0001501 103.6185 256.4975 15.08846607 67043,6917.86,95.437,540.764,538.687,0.0
53180.0,STARLINK-4258,PAYLOAD,2023-09-24 04:59:47,15.08849503,0.0001394,53.216,192.8702,98.3282,261.7869,7.1281e-05,8.47e-06,0.0,0 STARLINK-4258,1 53180U 22083BA  23267.20818632  .00000847  00000-0  71281-4 0  9994,2 53180  53.2160 192.8702 0001394  98.3282 261.7869 15.08849503 66424,6917.851,95.437,540.681,538.752,0.0
53180.0,STARLINK-4258,PAYLOAD,2023-09-24 22:29:02,15.08839884,0.0001536,53.2162,189.5968,104.3003,255.816,-1.9732e-05,-6.02e-06,0.0,0 STARLINK-4258,1 53180U 22083BA  23267.93683186 -.00000602  00000-0 -19732-4 0  9992,2 53180  53.2162 189.5968 0001536 104.3003 255.8160 15.08839884 66531,6917.881,95.438,540.808,538.683,0.0
53180.0,STARLINK-4258,PAYLOAD,2023-09-25 01:39:48,15.08844558,0.0001359,53.2162,189.0039,92.4286,267.6862,4.8392e-05,4.82e-06,0.0,0 STARLINK-4258,1 53180U 22083BA  23268.06930917  .00000482  00000-0  48392-4 0  9992,2 53180  53.2162 189.0039 0001359  92.4286 267.6862 15.08844558 67195,6917.866,95.437,540.672,538.791,0.0
53180.0,STARLINK-4258,PAYLOAD,2023-09-25 11:12:06,15.08854391,0.0001383,53.2165,187.2199,93.316,266.799,0.00021344,3.112e-05,0.0,0 STARLINK-4258,1 53180U 22083BA  23268.46674317  .00003112  00000-0  21344-3 0  9995,2 53180  53.2165 187.2199 0001383  93.3160 266.7990 15.08854391 66617,6917.836,95.437,540.658,538.745,0.0
53180.0,STARLINK-4258,PAYLOAD,2023-09-25 22:19:48,15.08853832,0.0001353,53.2163,185.1419,101.0481,259.0663,0.00022153,3.241e-05,0.0,0 STARLINK-4258,1 53180U 22083BA  23268.93042275  .00003241  00000-0  22153-3 0  9991,2 53180  53.2163 185.1419 0001353 101.0481 259.0663 15.08853832 66685,6917.838,95.437,540.639,538.767,0.0
53180.0,STARLINK-4258,PAYLOAD,2023-09-26 04:41:20,15.08869307,0.0001384,53.2164,183.9507,107.5353,252.5791,0.00050803,7.813e-05,0.0,0 STARLINK-4258,1 53180U 22083BA  23269.19537248  .00007813  00000-0  50803-3 0  9991,2 53180  53.2164 183.9507 0001384 107.5353 252.5791 15.08869307 67363,6917.791,95.436,540.613,538.698,0.0
53180.0,STARLINK-4258,PAYLOAD,2023-09-27 01:21:23,15.08799379,0.0002224,53.2163,180.0877,44.6379,315.4792,-0.00081223,-0.00013178,0.0,0 STARLINK-4258,1 53180U 22083BA  23270.05652399 -.00013178  00000-0 -81223-3 0  9996,2 53180  53.2163 180.0877 0002224  44.6379 315.4792 15.08799379 67498,6918.005,95.44,541.408,538.331,0.0
53180.0,STARLINK-4258,PAYLOAD,2023-09-27 02:56:47,15.08773457,0.0001203,53.2163,179.7902,99.8965,260.2163,-0.0013202,-0.00021199,0.0,0 STARLINK-4258,1 53180U 22083BA  23270.12277305 -.00021199  00000-0 -13202-2 0  9997,2 53180  53.2163 179.7902 0001203  99.8965 260.2163 15.08773457 67501,6918.084,95.442,540.781,539.117,0.0
53180.0,STARLINK-4258,PAYLOAD,2023-09-28 02:48:12,15.08138227,0.0001548,53.2173,175.3273,133.401,226.7111,-0.009903,-0.00151658,0.0,0 STARLINK-4258,1 53180U 22083BA  23271.11681258 -.00151658  00000-0 -99030-2 0  9990,2 53180  53.2173 175.3273 0001548 133.4010 226.7111 15.08138227 67659,6920.026,95.482,542.962,540.82,0.0
53180.0,STARLINK-4258,PAYLOAD,2023-09-28 05:59:11,15.0807361,0.0001329,53.2173,174.7349,124.4715,235.6402,-0.0089576,-0.00137239,0.0,0 STARLINK-4258,1 53180U 22083BA  23271.24944016 -.00137239  00000-0 -89576-2 0  9991,2 53180  53.2173 174.7349 0001329 124.4715 235.6402 15.08073610 67673,6920.224,95.486,543.009,541.169,0.0
53180.0,STARLINK-4258,PAYLOAD,2023-09-28 21:53:51,15.0774372,0.0001881,53.2174,171.764,116.7421,243.3764,-0.009558,-0.00144958,0.0,0 STARLINK-4258,1 53180U 22083BA  23271.91240131 -.00144958  00000-0 -95580-2 0  9990,2 53180  53.2174 171.7640 0001881 116.7421 243.3764 15.07743720 67139,6921.233,95.507,544.4,541.796,0.0
53180.0,STARLINK-4258,PAYLOAD,2023-09-29 06:00:00,15.07179608,0.0001133,53.2154,170.2577,76.9564,315.9384,0.0020155,0.00030508,0.0,0 STARLINK-4258,1 53180U 22083BA  23272.25001157  .00030508  00000-0  20155-2 0  9990,2 53180  53.2154 170.2577 0001133  76.9564 315.9384 15.07179608 67823,6922.96,95.543,545.61,544.041,0.0
53180.0,STARLINK-4258,PAYLOAD,2023-09-29 14:00:01,15.07177842,0.0001102,53.2155,168.7635,89.8444,312.6759,0.004565,0.00069842,0.0,0 STARLINK-4258,1 53180U 22083BA  23272.58334491  .00069842  00000-0  45650-2 0  9996,2 53180  53.2155 168.7635 0001102  89.8444 312.6759 15.07177842  5658,6922.966,95.543,545.594,544.068,0.0
53180.0,STARLINK-4258,PAYLOAD,2023-09-30 06:00:00,15.07172271,0.0001105,53.2153,165.7798,93.5044,328.3222,0.00055475,8.163e-05,0.0,0 STARLINK-4258,1 53180U 22083BA  23273.25001157  .00008163  00000-0  55475-3 0  9997,2 53180  53.2153 165.7798 0001105  93.5044 328.3222 15.07172271 67977,6922.983,95.543,545.613,544.083,0.0
53180.0,STARLINK-4258,PAYLOAD,2023-10-01 14:00:01,15.07184873,0.0001088,53.2154,159.8076,103.7595,356.5068,0.0047558,0.00072818,0.0,0 STARLINK-4258,1 53180U 22083BA  23274.58334491  .00072818  00000-0  47558-2 0  9994,2 53180  53.2154 159.8076 0001088 103.7595 356.5068 15.07184873 68171,6922.944,95.542,545.562,544.056,0.0
53180.0,STARLINK-4258,PAYLOAD,2023-10-01 22:00:00,15.0726551,0.0001216,53.2154,158.3164,91.8304,18.0629,-0.0063106,-0.00095223,0.0,0 STARLINK-4258,1 53180U 22083BA  23274.91667824 -.00095223  00000-0 -63106-2 0  9994,2 53180  53.2154 158.3164 0001216  91.8304  18.0629 15.07265510  5847,6922.697,95.537,545.404,543.72,0.0
53180.0,STARLINK-4258,PAYLOAD,2023-10-02 02:17:21,15.07219881,0.0001402,53.2148,157.5162,131.2692,228.8421,0.00055115,8.119e-05,0.0,0 STARLINK-4258,1 53180U 22083BA  23275.09538521  .00008119  00000-0  55115-3 0  9993,2 53180  53.2148 157.5162 0001402 131.2692 228.8421 15.07219881 68250,6922.837,95.54,545.672,543.731,0.0
53180.0,STARLINK-4258,PAYLOAD,2023-10-02 19:47:44,15.07211332,0.0001175,53.2155,154.2485,97.3697,262.7428,0.00030727,4.398e-05,0.0,0 STARLINK-4258,1 53180U 22083BA  23275.82482154  .00004398  00000-0  30727-3 0  9991,2 53180  53.2155 154.2485 0001175  97.3697 262.7428 15.07211332 68363,6922.863,95.541,545.541,543.915,0.0
53180.0,STARLINK-4258,PAYLOAD,2023-10-03 02:09:39,15.07277962,0.0001023,53.2149,153.0609,105.4981,254.6124,0.0020117,0.00030532,0.0,0 STARLINK-4258,1 53180U 22083BA  23276.09004373  .00030532  00000-0  20117-2 0  9994,2 53180  53.2149 153.0609 0001023 105.4981 254.6124 15.07277962 68409,6922.659,95.536,545.232,543.816,0.0
53180.0,STARLINK-4258,PAYLOAD,2023-10-03 08:31:31,15.07426212,6.53e-05,53.2146,151.8731,149.3415,210.7615,0.005384,0.00083139,0.0,0 STARLINK-4258,1 53180U 22083BA  23276.35522630  .00083139  00000-0  53840-2 0  9994,2 53180  53.2146 151.8731 0000653 149.3415 210.7615 15.07426212 68441,6922.205,95.527,544.522,543.618,0.0
53180.0,STARLINK-4258,PAYLOAD,2023-10-03 21:15:07,15.07891801,0.0001441,53.2155,149.4948,111.5055,248.6091,0.01471,0.00235584,0.0,0 STARLINK-4258,1 53180U 22083BA  23276.88549894  .00235584  00000-0  14710-1 0  9998,2 53180  53.2155 149.4948 0001441 111.5055 248.6091 15.07891801 67886,6920.78,95.498,543.642,541.648,0.0
53180.0,STARLINK-4258,PAYLOAD,2023-10-04 05:12:11,15.08142872,0.0001145,53.2149,148.0091,99.1734,260.9388,0.014981,0.00241789,0.0,0 STARLINK-4258,1 53180U 22083BA  23277.21680447  .00241789  00000-0  14981-1 0  9990,2 53180  53.2149 148.0091 0001145  99.1734 260.9388 15.08142872 68570,6920.012,95.482,542.669,541.085,0.0
53180.0,STARLINK-4258,PAYLOAD,2023-10-04 14:00:01,15.08800447,9.34e-05,53.2146,146.3642,105.2165,86.719,0.0020739,0.00032836,0.0,0 STARLINK-4258,1 53180U 22083BA  23277.58334491  .00032836  00000-0  20739-2 0  9995,2 53180  53.2146 146.3642 0000934 105.2165  86.7190 15.08800447 68622,6918.001,95.44,540.512,539.22,0.0
53180.0,STARLINK-4258,PAYLOAD,2023-10-04 22:00:01,15.08820493,9.13e-05,53.2145,144.8695,91.772,111.7903,-0.00064951,-0.00010604,0.0,0 STARLINK-4258,1 53180U 22083BA  23277.91668981 -.00010604  00000-0 -64951-3 0  9992,2 53180  53.2145 144.8695 0000913  91.7720 111.7903 15.08820493  5800,6917.94,95.439,540.437,539.173,0.0
53180.0,STARLINK-4258,PAYLOAD,2023-10-05 06:00:00,15.08836598,8.65e-05,53.2143,143.3727,91.6869,123.3755,-0.0019668,-0.00031449,0.0,0 STARLINK-4258,1 53180U 22083BA  23278.25001157 -.00031449  00000-0 -19668-2 0  9990,2 53180  53.2143 143.3727 0000865  91.6869 123.3755 15.08836598 68724,6917.891,95.438,540.354,539.157,0.0
53180.0,STARLINK-4258,PAYLOAD,2023-10-05 14:00:01,15.08812302,9.35e-05,53.2144,141.8752,104.9962,121.6455,0.0017373,0.00027448,0.0,0 STARLINK-4258,1 53180U 22083BA  23278.58334491  .00027448  00000-0  17373-2 0  9999,2 53180  53.2144 141.8752 0000935 104.9962 121.6455 15.08812302  5902,6917.965,95.439,540.477,539.183,0.0
53180.0,STARLINK-4258,PAYLOAD,2023-10-05 22:00:00,15.08783122,0.0001026,53.2147,140.3804,84.0975,154.1276,0.0088436,0.00143108,0.0,0 STARLINK-4258,1 53180U 22083BA  23278.91667824  .00143108  00000-0  88436-2 0  9995,2 53180  53.2147 140.3804 0001026  84.0975 154.1276 15.08783122 68820,6918.054,95.441,540.629,539.209,0.0
